     3.03           N: GNSS NAV DATA    M: Mixed            RINEX VERSION / TYPE
sbp2rinex v2.2 (RTKL                    20210504 171527 UTC PGM / RUN BY / DATE 
log: 2020-07-08-US-MTV-2.sbp                                COMMENT             
format: Swift Navigation SBP, option: CONVBASE,EPHALL,OBSALLCOMMENT             
                                                            END OF HEADER       
E11 2020  7  8 23 50  0  .397690082900E-02  .250111042988E-09  .000000000000E+00
      .630000000000E+02  .569375000000E+02  .293655089056E-08  .272907048479E+01
      .255554914474E-05  .446632970124E-03  .108964741230E-05  .544060897446E+04
      .345000000000E+06 -.372529029846E-07  .204776473149E+01 -.540167093277E-07
      .988360494805E+00  .332281250000E+03  .881060165750E+00 -.583310011489E-08
      .283940398686E-09  .500000000000E+01  .211300000000E+04  .100000000000E+01
      .312000000000E+01  .000000000000E+00 -.153668224812E-07 -.167638063431E-07
      .345675000000E+06  .000000000000E+00
E33 2020  7  8 23 50  0 -.465154764242E-03  .483169060317E-12  .000000000000E+00
      .630000000000E+02  .534062500000E+02  .288976322738E-08 -.127620440822E+01
      .260211527348E-05  .115406117402E-03  .134110450745E-06  .544060360718E+04
      .345000000000E+06  .186264514923E-08  .204362762257E+01 -.465661287308E-07
      .991552722494E+00  .347031250000E+03  .185962133452E+00 -.586131557589E-08
      .290726395636E-09  .500000000000E+01  .211300000000E+04  .100000000000E+01
      .312000000000E+01  .000000000000E+00 -.512227416039E-08 -.605359673500E-08
      .345675000000E+06  .000000000000E+00
R16 2020  7  9  0 15  0 -.458117574453E-05  .000000000000E+00  .180000000000E+04
     -.630680712891E+04 -.247356319427E+01 -.931322574615E-09  .000000000000E+00
      .140454418945E+05  .128524589539E+01 -.186264514923E-08 -.100000000000E+01
      .203557363281E+05 -.164072799683E+01 -.931322574615E-09  .240000000000E+04
C19 2020  7  9  0  0  0  .469062128104E-03  .119007026456E-10  .000000000000E+00
      .100000000000E+01 -.985937500000E+02  .371979780165E-08  .288672464870E+01
     -.469572842121E-05  .929840374738E-03  .102678313851E-04  .528262912369E+04
      .345600000000E+06  .358559191227E-07 -.258247756150E+01  .381842255592E-07
      .964053249259E+00  .155421875000E+03 -.110287445682E+01 -.665527721901E-08
      .103575742917E-09  .120000000000E+02  .757000000000E+03  .100000000000E+01
      .200000000000E+01  .000000000000E+00  .123000001295E-07  .123000001295E-07
      .345665000000E+06  .100000000000E+01
G26 2020  7  9  0  0  0  .239897985011E-03  .682121026330E-11  .000000000000E+00
      .380000000000E+02  .971875000000E+01  .461162066394E-08  .304751069200E+01
      .473111867905E-06  .477355963085E-02  .916235148907E-05  .515364622116E+04
      .345600000000E+06 -.223517417908E-07  .185049929421E+00  .149011611938E-07
      .946470688486E+00  .196093750000E+03  .217220181167E+00 -.799211861811E-08
     -.427517807833E-09  .200000000000E+01  .211300000000E+04  .100000000000E+01
      .200000000000E+01  .000000000000E+00  .698491930962E-08  .380000000000E+02
      .345679000000E+06  .400000000000E+01
C11 2020  7  9  0  0  0 -.478708418086E-03 -.241140440949E-10  .000000000000E+00
      .100000000000E+01  .967968750000E+02  .331299514240E-08 -.301059899402E+01
      .465195626020E-05  .184933049604E-02  .387756153941E-05  .528260335159E+04
      .345600000000E+06  .209547579288E-07  .163226050220E+01  .358559191227E-07
      .989913440863E+00  .299218750000E+03 -.216323179341E+01 -.670349351313E-08
      .338942689752E-09  .120000000000E+02  .757000000000E+03  .100000000000E+01
      .200000000000E+01  .000000000000E+00  .409999989515E-08  .119999998827E-08
      .345665000000E+06  .000000000000E+00
R 5 2020  7  9  0 15  0  .537456944585E-04  .000000000000E+00  .180000000000E+04
      .488214794922E+04 -.218775939941E+01  .372529029846E-08  .000000000000E+00
      .149969721680E+05 -.166388511658E+01  .931322574615E-09  .100000000000E+01
     -.200273662109E+05 -.177972888947E+01  .931322574615E-09  .240000000000E+04
E27 2020  7  8 23 50  0  .181569892447E-03 -.817124146124E-11  .000000000000E+00
      .630000000000E+02 -.487500000000E+01  .281011705265E-08 -.203656356275E+01
     -.400468707085E-06  .164481112733E-03  .849552452564E-05  .544061159134E+04
      .345000000000E+06  .409781932831E-07 -.377973558973E-01  .465661287308E-07
      .982095771957E+00  .169156250000E+03 -.169877493414E+01 -.535343727787E-08
     -.639312344211E-09  .500000000000E+01  .211300000000E+04  .100000000000E+01
      .312000000000E+01  .000000000000E+00  .000000000000E+00 -.232830643654E-09
      .345679000000E+06  .000000000000E+00
G22 2020  7  9  2  0  0 -.773285981268E-03  .250111042988E-11  .000000000000E+00
      .480000000000E+02 -.102031250000E+03  .522307470488E-08  .129433385898E+01
     -.535324215889E-05  .695259601343E-02  .716000795364E-05  .515379565239E+04
      .352800000000E+06  .968575477600E-07 -.300873480044E+01 -.156462192535E-06
      .931562908111E+00  .228906250000E+03 -.112335278200E+01 -.837499170916E-08
     -.275011455331E-10  .200000000000E+01  .211300000000E+04  .100000000000E+01
      .200000000000E+01  .000000000000E+00 -.181607902050E-07  .480000000000E+02
      .345679000000E+06  .400000000000E+01
E 7 2020  7  8 23 50  0 -.406348844990E-03 -.510169684276E-11  .000000000000E+00
      .630000000000E+02 -.220625000000E+02  .330120893717E-08 -.709020648527E+00
     -.100955367088E-05  .410365290008E-03  .112000852823E-04  .544062723732E+04
      .345000000000E+06 -.186264514923E-08 -.213179434952E+01  .223517417908E-07
      .953741748292E+00  .981250000000E+02 -.926370006823E+00 -.548665711272E-08
      .392159192147E-09  .500000000000E+01  .211300000000E+04  .100000000000E+01
      .312000000000E+01  .000000000000E+00  .279396772385E-08  .302679836750E-08
      .345679000000E+06  .000000000000E+00
C21 2020  7  9  0  0  0 -.632053241134E-03 -.508366682084E-10  .000000000000E+00
      .100000000000E+01 -.807500000000E+02  .364943772802E-08  .107491050709E+01
     -.399397686124E-05  .797720975243E-03  .996980816126E-05  .528263166809E+04
      .345600000000E+06 -.209547579288E-07 -.257998113862E+01 -.558793544769E-08
      .963335072052E+00  .162312500000E+03 -.862118766204E+00 -.660706092489E-08
      .785747015231E-10  .120000000000E+02  .757000000000E+03  .100000000000E+01
      .200000000000E+01  .000000000000E+00  .145000003116E-07  .145000003116E-07
      .345674000000E+06  .100000000000E+01
E 9 2020  7  8 23 50  0  .600286450936E-02 -.122355459098E-10  .000000000000E+00
      .630000000000E+02 -.588750000000E+02  .311405828446E-08  .218520129441E+01
     -.254064798355E-05  .444331206381E-03  .119060277939E-04  .544063409615E+04
      .345000000000E+06  .260770320892E-07 -.213802661460E+01  .102445483208E-06
      .959712699635E+00  .841562500000E+02 -.683199737737E+00 -.543701218767E-08
      .415017287136E-09  .500000000000E+01  .211300000000E+04  .100000000000E+01
      .312000000000E+01  .000000000000E+00 -.232830643654E-09 -.465661287308E-09
      .345689000000E+06  .000000000000E+00
E30 2020  7  8 23 50  0  .376269005938E-02 -.303970182358E-10  .000000000000E+00
      .630000000000E+02 -.206250000000E+01  .282726062390E-08  .229591207903E+01
     -.633299350739E-07  .174353481270E-03  .843033194542E-05  .544060133553E+04
      .345000000000E+06  .000000000000E+00 -.326053543039E-01  .335276126862E-07
      .980076748976E+00  .167593750000E+03  .105347693151E+01 -.539093883996E-08
     -.565737850967E-09  .500000000000E+01  .211300000000E+04  .100000000000E+01
      .312000000000E+01  .000000000000E+00 -.465661287308E-09 -.465661287308E-09
      .345689000000E+06  .000000000000E+00
C16 2020  7  9  0  0  0 -.602904125117E-03  .587707660316E-11  .000000000000E+00
      .100000000000E+01  .140375000000E+03  .117004873723E-08  .849852063521E-01
      .436371192336E-05  .291602383368E-02  .185673125088E-04  .649367216492E+04
      .345600000000E+06  .232830643654E-08 -.176956550635E+01  .152271240950E-06
      .959916899592E+00 -.339750000000E+03 -.256731875024E+01 -.180328939996E-08
      .897537386035E-09  .120000000000E+02  .757000000000E+03  .100000000000E+01
      .200000000000E+01  .000000000000E+00 -.290000001790E-08  .419999990342E-08
      .345675000000E+06  .000000000000E+00
R24 2020  7  9  0 15  0  .557955354452E-05  .181898940355E-11  .180000000000E+04
     -.559452783203E+04  .139225959778E+00 -.279396772385E-08  .000000000000E+00
     -.186760551758E+05 -.225079536438E+01 -.931322574615E-09  .200000000000E+01
      .164502143555E+05 -.251054477692E+01  .000000000000E+00  .240000000000E+04
E 2 2020  7  8 23 50  0  .145969621371E-03  .264321897703E-11  .000000000000E+00
      .630000000000E+02 -.737500000000E+01  .276332938948E-08 -.170053338362E+01
     -.184401869774E-06  .115726725198E-03  .845454633236E-05  .544060199356E+04
      .345000000000E+06 -.931322574615E-07 -.350729021157E-01 -.372529029846E-08
      .982566462923E+00  .171125000000E+03 -.459431434306E+00 -.530843540336E-08
     -.584310053145E-09  .500000000000E+01  .211300000000E+04  .100000000000E+01
      .312000000000E+01  .000000000000E+00 -.349245965481E-08 -.442378222942E-08
      .345689000000E+06  .000000000000E+00
E 5 2020  7  8 23 50  0 -.364880717825E-03  .322586402035E-11  .000000000000E+00
      .630000000000E+02 -.486250000000E+02  .328263673500E-08  .185419482570E+01
     -.210478901863E-05  .240747118369E-03  .106710940599E-04  .544062583351E+04
      .345000000000E+06  .838190317154E-07 -.213182432763E+01 -.540167093277E-07
      .953711313744E+00  .106468750000E+03 -.112955074166E+01 -.550022910662E-08
      .328227957726E-09  .500000000000E+01  .211300000000E+04  .100000000000E+01
      .312000000000E+01  .000000000000E+00  .162981450558E-08  .186264514923E-08
      .345689000000E+06  .000000000000E+00
